STARLINK-2603           
1 48375U 21038Y   22225.03493120  .00001477  00000+0  11804-3 0  9991
2 48375  53.0545  88.4471 0001502  80.0621 280.0537 15.06405434 70529
STARLINK-2610           
1 48376U 21038Z   22225.42933091 -.00000054  00000+0  15303-4 0  9991
2 48376  53.0536  86.6860 0001491  87.6413 272.4747 15.06397789 70588
STARLINK-2499           
1 48377U 21038AA  22225.09391346 -.00000075  00000+0  13879-4 0  9995
2 48377  53.0545  88.1743 0001434  72.6435 287.4710 15.06394551 70536
STARLINK-2526           
1 48378U 21038AB  22225.55465760  .00000925  00000+0  80983-4 0  9992
2 48378  53.0562  86.1236 0001672  83.6695 276.4484 15.06399100 70604
STARLINK-2612           
1 48379U 21038AC  22225.08653598  .00004336  00000+0  30975-3 0  9994
2 48379  53.0530  88.2169 0001331  87.9463 272.1679 15.06409576 70530
STARLINK-2614           
1 48380U 21038AD  22225.31043991  .00002318  00000+0  17444-3 0  9996
2 48380  53.0539  87.2080 0001730  72.3956 287.7222 15.06405037 70567
STARLINK-2630           
1 48381U 21038AE  22225.54728182  .00001222  00000+0  10094-3 0  9991
2 48381  53.0539  86.1449 0001355  83.7389 276.3754 15.06402724 70603
STARLINK-2585           
1 48382U 21038AF  22225.60994756  .00005141  00000+0  36369-3 0  9998
2 48382  53.0535  85.8758 0001670  75.6083 284.5092 15.06407450 70618
STARLINK-2599           
1 48383U 21038AG  22225.40722250  .00002532  00000+0  18877-3 0  9990
2 48383  53.0538  86.7862 0001408  72.2985 287.8158 15.06409465 71800
STARLINK-2601           
1 48384U 21038AH  22225.00545671  .00001507  00000+0  12007-3 0  9997
2 48384  53.0547  88.5823 0001650  79.9426 280.1749 15.06396176 71740
STARLINK-2598           
1 48385U 21038AJ  22225.53254766  .00007128  00000+0  49678-3 0  9997
2 48385  53.0549  86.2160 0001431  74.1741 285.9406 15.06410531 71820
STARLINK-2606           
1 48386U 21038AK  22225.52009776  .00003593  00000+0  25992-3 0  9991
2 48386  53.0539  81.2795 0001530  80.4573 279.6589 15.06408400 71253
STARLINK-2600           
1 48387U 21038AL  22225.54959243  .00000906  00000+0  79692-4 0  9999
2 48387  53.0557  81.1082 0001486  75.7244 284.3910 15.06402369 70678
STARLINK-2594           
1 48388U 21038AM  22225.54590272  .00003393  00000+0  24652-3 0  9991
2 48388  53.0533  81.1545 0001451  78.2834 281.8318 15.06410659 70677
STARLINK-1904           
1 48389U 21038AN  22225.06808889  .00002856  00000+0  21050-3 0  9997
2 48389  53.0546  78.2916 0001431  84.9645 275.1508 15.06403642 70663
STARLINK-2586           
1 48390U 21038AP  22225.06534666  .00005149  00000+0  36422-3 0  9995
2 48390  53.0540  78.3104 0001382  78.0810 282.0334 15.06408767 71884
STARLINK-2607           
1 48391U 21038AQ  22225.52608811  .00000512  00000+0  53276-4 0  9997
2 48391  53.0552  76.2499 0001574  73.7077 286.4085 15.06401715 71957
STARLINK-2605           
1 48392U 21038AR  22225.32335846  .00002454  00000+0  18358-3 0  9999
2 48392  53.0539  77.1601 0001466  78.5285 281.5869 15.06402834 71928
STARLINK-2602           
1 48393U 21038AS  22225.31968405  .00004800  00000+0  34086-3 0  9995
2 48393  53.0530  77.1691 0001481  75.6683 284.4471 15.06408610 71925
STARLINK-2573           
1 48394U 21038AT  22225.31599702  .00008784  00000+0  60749-3 0  9996
2 48394  53.0536  77.1971 0001344  75.1976 284.9162 15.06420767 71920
STARLINK-2574           
1 48395U 21038AU  22225.55934325 -.00000061  00000+0  14823-4 0  9991
2 48395  53.0578  76.7265 0001763  98.9932 261.1257 15.06396857 71955
STARLINK-2575           
1 48396U 21038AV  22225.04693211  .00005600  00000+0  39452-3 0  9999
2 48396  53.0530  78.4048 0001362  80.5325 279.5818 15.06403897 71881
STARLINK-2590           
1 48397U 21038AW  22225.57401016  .00003325  00000+0  24196-3 0  9999
2 48397  53.0541  76.0370 0001606  84.4258 275.6914 15.06405042 71962
STARLINK-2588           
1 48398U 21038AX  22225.57032456  .00001517  00000+0  12069-3 0  9995
2 48398  53.0535  76.0410 0001560  81.2102 278.9064 15.06405774 71967
STARLINK-2587           
1 48399U 21038AY  22225.30125155  .00006110  00000+0  42852-3 0  9993
2 48399  53.0531  77.2515 0001376  77.2276 282.8866 15.06415143 71915
STARLINK-2576           
1 48400U 21038AZ  22225.29756255  .00002069  00000+0  15772-3 0  9995
2 48400  53.0552  77.2773 0001454  72.8427 287.2721 15.06400574 70700
STARLINK-2571           
1 48401U 21038BA  22225.00269511  .00011830  00000+0  81129-3 0  9994
2 48401  53.0537  78.6046 0001534  69.6669 290.4485 15.06421443 70658
STARLINK-2560           
1 48402U 21038BB  22225.29293450  .00001791  00000+0  13908-3 0  9990
2 48402  53.0558  77.2801 0001396  74.1532 285.9611 15.06399456 70706
STARLINK-2561           
1 48403U 21038BC  22225.55557875  .00000334  00000+0  41337-4 0  9994
2 48403  53.0552  76.1222 0001432  79.4468 280.6682 15.06399256 70745
STARLINK-2593           
1 48404U 21038BD  22225.41923519  .00024986  00000+0  16950-2 0  9992
2 48404  53.0555  76.7321 0001406 130.4907 229.6205 15.06297843 70723
STARLINK-2570           
1 48405U 21038BE  22225.28282288  .00002412  00000+0  18075-3 0  9990
2 48405  53.0542  77.3241 0001517  73.4978 286.6177 15.06402756 70705
STARLINK-2568           
1 48406U 21038BF  22225.01374336  .00000715  00000+0  66899-4 0  9990
2 48406  53.0545  78.5492 0001467  69.2540 290.8606 15.06395613 70664
STARLINK-2595           
1 48407U 21038BG  22225.07640502  .00003885  00000+0  27952-3 0  9995
2 48407  53.0541  78.2465 0001385  68.1781 291.9355 15.06409812 71258
STARLINK-2592           
1 48408U 21038BH  22225.07272411  .00001821  00000+0  14114-3 0  9990
2 48408  53.0568  78.2849 0001565 102.4855 257.6309 15.06397577 70664
STARLINK-2596           
1 48409U 21038BJ  22225.29525607  .00000370  00000+0  43718-4 0  9994
2 48409  53.0550  82.2848 0001479  69.5819 290.5329 15.06399398 70646
STARLINK-2563           
1 48410U 21038BK  22225.56526323 -.00000401  00000+0 -80295-5 0  9991
2 48410  53.0565  31.0754 0001273  83.0134 277.1000 15.06392480 71389
STARLINK-2505           
1 48411U 21038BL  22225.44961431 -.00000149  00000+0  88755-5 0  9999
2 48411  53.0562  26.5862 0001386  99.7402 260.3743 15.06390066 71435
STARLINK-2581           
1 48412U 21038BM  22225.60078597 -.00004426  00000+0 -27853-3 0  9993
2 48412  53.0550  26.3374 0001287  76.9600 283.1533 15.06389732 71456
YAOGAN-30 X             
1 48423U 21039A   22225.45882209  .00000904  00000+0  93230-4 0  9990
2 48423  35.0014 221.9583 0004346 137.2245 222.8805 14.90637554 69193
YAOGAN-30 Y             
1 48424U 21039B   22225.43661645  .00000923  00000+0  95161-4 0  9994
2 48424  34.9989 221.7191 0006111 257.2521 102.7522 14.90633570 69194
YAOGAN-30 Z             
1 48425U 21039C   22225.41408302  .00000975  00000+0  10040-3 0  9991
2 48425  34.9991 221.5381 0002513 174.9758 185.0973 14.90650702 69208
TIANQI-12               
1 48426U 21039D   22225.44083344  .00000964  00000+0  95602-4 0  9996
2 48426  35.0071 215.4983 0006056 288.6292  71.3756 14.92140769 69241
STARLINK-2461           
1 48428U 21040A   22225.54222106  .00001390  00000+0  11218-3 0  9996
2 48428  53.0535 281.1797 0001333  74.1096 286.0039 15.06393543 69991
STARLINK-2749           
1 48429U 21040B   22225.51183590  .00002073  00000+0  15806-3 0  9993
2 48429  53.0537 251.3115 0001591  64.7510 295.3644 15.06392199 70408
STARLINK-2729           
1 48430U 21040C   22225.47771200  .00003223  00000+0  23515-3 0  9995
2 48430  53.0531 251.4627 0001539  68.4344 291.6809 15.06401204 70401
STARLINK-2700           
1 48431U 21040D   22225.29201175  .00001867  00000+0  14416-3 0  9997
2 48431  53.0537 247.2974 0001373  84.3561 275.7585 15.06401386 70449
STARLINK-2680           
1 48432U 21040E   22225.47223581  .00003226  00000+0  23534-3 0  9995
2 48432  53.0528 241.8760 0001339  91.8793 268.2350 15.06406759 70531
STARLINK-2699           
1 48433U 21040F   22225.35196577  .00001743  00000+0  13583-3 0  9992
2 48433  53.0540 247.3082 0001164  85.0378 275.0744 15.06402580 70445
STARLINK-2692           
1 48434U 21040G   22225.44923933  .00002037  00000+0  15562-3 0  9993
2 48434  53.0546 252.0983 0001198  96.5139 263.5986 15.06389171 70398
STARLINK-2633           
1 48435U 21040H   22225.52195358  .00001843  00000+0  14262-3 0  9995
2 48435  53.0544 261.2691 0001681  60.8685 299.2472 15.06400515 70260
STARLINK-2639           
1 48436U 21040J   22225.57769429  .00002765  00000+0  20433-3 0  9998
2 48436  53.0539 276.0112 0001326  80.7326 279.3813 15.06415085 70060
STARLINK-2642           
1 48437U 21040K   22225.49568961  .00002928  00000+0  21535-3 0  9993
2 48437  53.0550 286.3727 0001285  61.1871 298.9247 15.06406927 69917
STARLINK-2640           
1 48438U 21040L   22225.57401216  .00002313  00000+0  17411-3 0  9998
2 48438  53.0526 276.0209 0001478  62.4193 297.6946 15.06398924 70064
STARLINK-2583           
1 48439U 21040M   22225.37128820  .00002406  00000+0  18032-3 0  9997
2 48439  53.0536 276.9335 0001188  79.1176 280.9946 15.06401105 70037
STARLINK-2682           
1 48440U 21040N   22225.43394719  .00000755  00000+0  69549-4 0  9993
2 48440  53.0537 276.6520 0001302  83.9394 276.1743 15.06397083 70048
STARLINK-2702           
1 48441U 21040P   22225.43025217  .00000429  00000+0  47720-4 0  9993
2 48441  53.0514 276.6628 0001391  85.1939 274.9209 15.06399811 70044
STARLINK-2644           
1 48442U 21040Q   22225.49292354  .00002538  00000+0  18917-3 0  9996
2 48442  53.0544 276.3922 0001260  78.3284 281.7846 15.06405457 70052
STARLINK-2663           
1 48443U 21040R   22225.42288454  .00001174  00000+0  97705-4 0  9994
2 48443  53.0537 276.7132 0001451  97.1178 262.9976 15.06396159 70047
STARLINK-2645           
1 48444U 21040S   22225.41921494  .00001138  00000+0  95300-4 0  9991
2 48444  53.0546 276.7231 0001382  79.4465 280.6680 15.06393009 70043
